*******************************************************************************
JPL/HORIZONS                51 Nemausa (A858 BA)           2023-Sep-04 11:04:06
Rec #:      51 (+COV) Soln.date: 2023-Aug-23_23:39:15  # obs: 11552 (1863-2023)
 
IAU76/J2000 helio. ecliptic osc. elements (au, days, deg., period=Julian yrs):
 
  EPOCH=  2457404.5 ! 2016-Jan-17.00 (TDB)         Residual RMS= .30295
   EC= .06692084116558852  QR= 2.207334385179891   TP= 2456915.8851073585
   OM= 176.0194281892857   W=  2.302198927958018   IN= 9.980148920807324
   A= 2.365645362754924    MA= 132.3568170295482   ADIST= 2.523956340329957
   PER= 3.63859            N= .270881668           ANGMOM= .026398643
   DAN= 2.20745            DDN= 2.52381            L= 178.2868266
   B= .398883              MOID= 1.21167004        TP= 2014-Sep-15.3851073585
 
Asteroid physical parameters (km, seconds, rotational period in hours):
   GM= n.a.                RAD= 69.0795            ROTPER= 7.783
   H= 7.75                 G= .080                 B-V= .789
                           ALBEDO= .100            STYP= Ch

ASTEROID comments: 
1: soln ref.= JPL#143, OCC=0
2: source=ORB
*******************************************************************************


*******************************************************************************
Ephemeris / API_USER Mon Sep  4 11:04:06 2023 Pasadena, USA      / Horizons
*******************************************************************************
Target body name: 51 Nemausa (A858 BA)            {source: JPL#143}
Center body name: Solar System Barycenter (0)     {source: DE441}
Center-site name: BODY CENTER
*******************************************************************************
Start time      : A.D. 2023-Aug-12 00:00:00.0000 TDB
Stop  time      : A.D. 2023-Aug-13 00:00:00.0000 TDB
Step-size       : 2880 minutes
*******************************************************************************
Center geodetic : 0.0, 0.0, 0.0                   {E-lon(deg),Lat(deg),Alt(km)}
Center cylindric: 0.0, 0.0, 0.0                   {E-lon(deg),Dxy(km),Dz(km)}
Center radii    : (undefined)
Small perturbers: Yes                             {source: SB441-N16}
Output units    : KM-S
Calendar mode   : Mixed Julian/Gregorian
Output type     : GEOMETRIC cartesian states
Output format   : 2 (position and velocity)
Reference frame : Ecliptic of J2000.0
*******************************************************************************
Initial IAU76/J2000 heliocentric ecliptic osculating elements (au, days, deg.):
  EPOCH=  2457404.5 ! 2016-Jan-17.00 (TDB)         Residual RMS= .30295        
   EC= .06692084116558852  QR= 2.207334385179891   TP= 2456915.8851073585      
   OM= 176.0194281892857   W=  2.302198927958018   IN= 9.980148920807324       
  Equivalent ICRF heliocentric cartesian coordinates (au, au/d):
   X= 1.785028993927473E+00  Y=-1.665859478467987E+00  Z=-4.214919181238594E-01
  VX= 7.751615044743602E-03 VY= 7.146182558068724E-03 VZ= 1.617462426638305E-03
Asteroid physical parameters (km, seconds, rotational period in hours):        
   GM= n.a.                RAD= 69.0795            ROTPER= 7.783               
   H= 7.75                 G= .080                 B-V= .789                   
                           ALBEDO= .100            STYP= Ch                    
*******************************************************************************
JDTDB
   X     Y     Z
   VX    VY    VZ
*******************************************************************************
$$SOE
2460168.500000000 = A.D. 2023-Aug-12 00:00:00.0000 TDB 
 X = 3.563078569129977E+08 Y =-1.172384695322892E+08 Z = 1.612348894972372E+07
 VX= 6.035211253998726E+00 VY= 1.684456163818311E+01 VZ=-3.033757160765493E+00
$$EOE
*******************************************************************************
 
TIME

  Barycentric Dynamical Time ("TDB" or T_eph) output was requested. This
continuous coordinate time is equivalent to the relativistic proper time
of a clock at rest in a reference frame co-moving with the solar system
barycenter but outside the system's gravity well. It is the independent
variable in the solar system relativistic equations of motion.

  TDB runs at a uniform rate of one SI second per second and is independent
of irregularities in Earth's rotation.
 
CALENDAR SYSTEM

  Mixed calendar mode was active such that calendar dates after AD 1582-Oct-15
(if any) are in the modern Gregorian system. Dates prior to 1582-Oct-5 (if any)
are in the Julian calendar system, which is automatically extended for dates
prior to its adoption on 45-Jan-1 BC.  The Julian calendar is useful for
matching historical dates. The Gregorian calendar more accurately corresponds
to the Earth's orbital motion and seasons. A "Gregorian-only" calendar mode is
available if such physical events are the primary interest.

REFERENCE FRAME AND COORDINATES

  Ecliptic at the standard reference epoch

    Reference epoch: J2000.0
    X-Y plane: adopted Earth orbital plane at the reference epoch
               Note: IAU76 obliquity of 84381.448 arcseconds wrt ICRF X-Y plane
    X-axis   : ICRF
    Z-axis   : perpendicular to the X-Y plane in the directional (+ or -) sense
               of Earth's north pole at the reference epoch.

  Symbol meaning:

    JDTDB    Julian Day Number, Barycentric Dynamical Time
      X      X-component of position vector (km)
      Y      Y-component of position vector (km)
      Z      Z-component of position vector (km)
      VX     X-component of velocity vector (km/sec)                           
      VY     Y-component of velocity vector (km/sec)                           
      VZ     Z-component of velocity vector (km/sec)                           

ABERRATIONS AND CORRECTIONS

 Geometric state vectors have NO corrections or aberrations applied.

Computations by ...

    Solar System Dynamics Group, Horizons On-Line Ephemeris System
    4800 Oak Grove Drive, Jet Propulsion Laboratory
    Pasadena, CA  91109   USA

    General site: https://ssd.jpl.nasa.gov/
    Mailing list: https://ssd.jpl.nasa.gov/email_list.html
    System news : https://ssd.jpl.nasa.gov/horizons/news.html
    User Guide  : https://ssd.jpl.nasa.gov/horizons/manual.html
    Connect     : browser        https://ssd.jpl.nasa.gov/horizons/app.html#/x
                  API            https://ssd-api.jpl.nasa.gov/doc/horizons.html
                  command-line   telnet ssd.jpl.nasa.gov 6775
                  e-mail/batch   https://ssd.jpl.nasa.gov/ftp/ssd/hrzn_batch.txt
                  scripts        https://ssd.jpl.nasa.gov/ftp/ssd/SCRIPTS
    Author      : Jon.D.Giorgini@jpl.nasa.gov
*******************************************************************************
